[{"OBJECT_NAME":"IRIDE FM2","OBJECT_ID":"2025-276AG","EPOCH":"2026-03-09T22:42:46.282464","MEAN_MOTION":15.18971526,"ECCENTRICITY":0.00034688,"INCLINATION":97.4252,"RA_OF_ASC_NODE":144.1705,"ARG_OF_PERICENTER":20.3269,"MEAN_ANOMALY":339.8103,"EPHEMERIS_TYPE":0,"CLASSIFICATION_TYPE":"U","NORAD_CAT_ID":66696,"ELEMENT_SET_NO":999,"REV_AT_EPOCH":1535,"BSTAR":0.00057867113,"MEAN_MOTION_DOT":0.00012043,"MEAN_MOTION_DDOT":0},{"OBJECT_NAME":"GYEONGGISAT-1","OBJECT_ID":"2025-276DK","EPOCH":"2026-03-09T18:01:52.501440","MEAN_MOTION":15.19586974,"ECCENTRICITY":0.00014169,"INCLINATION":97.4305,"RA_OF_ASC_NODE":144.1952,"ARG_OF_PERICENTER":168.8338,"MEAN_ANOMALY":191.2928,"EPHEMERIS_TYPE":0,"CLASSIFICATION_TYPE":"U","NORAD_CAT_ID":66771,"ELEMENT_SET_NO":999,"REV_AT_EPOCH":1533,"BSTAR":0.00034251892,"MEAN_MOTION_DOT":7.224e-5,"MEAN_MOTION_DDOT":0}]
